{
  "norad_id": 27168,
  "name": "USA 164 (MILSTAR-2 3)",
  "history": [
    {
      "epoch": "2026-03-27T00:39:38.668032",
      "apogee_km": 36205.85727284268,
      "perigee_km": 35363.54495810698,
      "latitude_deg": -6.538310079911047,
      "longitude_deg": 43.442964480025694,
      "semi_major_axis_km": 42162.838115474835,
      "eccentricity": 0.0099888,
      "inclination_deg": 11.0833,
      "raan_deg": 22.3992,
      "arg_perigee_deg": 5.7119,
      "mean_anomaly_deg": 185.3441,
      "mean_motion_rev_day": 1.00278541
    }
  ]
}